O3B FM11                
1 40349U 14083B   23109.40432874 -.00000024  00000+0  00000+0 0  9998
2 40349   0.0516 359.6522 0003343  32.7766 327.5907  5.00115479152148
O3B FM12                
1 40350U 14083C   23109.43157983 -.00000024  00000+0  00000+0 0  9998
2 40350   0.0512   0.5490 0002864  25.6763 333.7881  5.00115375152153
O3B FM9                 
1 40351U 14083D   23109.45812197 -.00000024  00000+0  00000+0 0  9996
2 40351   0.0514 358.3035 0002747  30.2615 331.4489  5.00116113152300
ASTRA 2G                
1 40364U 14089A   23110.01605545  .00000141  00000+0  00000+0 0  9996
2 40364   0.0265  33.0129 0004720  10.7571 198.0287  1.00270972 30448
SES-9                   
1 41380U 16013A   23109.89639588 -.00000354  00000+0  00000+0 0  9999
2 41380   0.0160 274.9268 0001970 144.8558 218.9332  1.00271418 26173
SES-10                  
1 42432U 17017A   23110.09465208 -.00000281  00000+0  00000+0 0  9992
2 42432   0.0414  57.3511 0002788 334.6708 143.0656  1.00269413 22155
SES-15                  
1 42709U 17026A   23109.69793763  .00000051  00000+0  00000+0 0  9997
2 42709   0.0326  20.8445 0000227 350.9124 317.8768  1.00271378 22567
SES-11 (ECHOSTAR 105)   
1 42967U 17063A   23109.42491505 -.00000098  00000+0  00000+0 0  9996
2 42967   0.0204 264.3545 0001359  96.4161 254.5192  1.00270560 20146
SES-14                  
1 43175U 18012B   23109.85760170 -.00000287  00000+0  00000+0 0  9997
2 43175   0.0136 293.2221 0000923  99.0692  76.6306  1.00270348 19498
O3B FM15                
1 43231U 18024A   23109.52401515 -.00000024  00000+0  00000+0 0  9991
2 43231   0.0562   6.6805 0002953  19.0741 334.2590  5.00116394 93269
O3B FM16                
1 43232U 18024B   23109.77738276 -.00000025  00000+0  00000+0 0  9997
2 43232   0.0597   8.8574 0002975  17.7552 333.4017  5.00116157 93198
O3B FM14                
1 43233U 18024C   23109.81726668 -.00000025  00000+0  00000+0 0  9995
2 43233   0.0606  10.1441 0003060  19.6163 330.2560  5.00115590 93204
O3B FM13                
1 43234U 18024D   23108.47165255 -.00000024  00000+0  00000+0 0  9995
2 43234   0.0672 351.4068 0003527  23.8233 344.7792  5.00115325 93255
SES-12                  
1 43488U 18049A   23110.02941000 -.00000277  00000+0  00000+0 0  9997
2 43488   0.0131  83.5220 0001685 217.9801  11.9343  1.00268278 17847
O3B FM20                
1 44112U 19020A   23109.64405794 -.00000024  00000+0  00000+0 0  9993
2 44112   0.0535   4.5703 0003333  20.0431 335.4014  5.00115597 73810
O3B FM19                
1 44113U 19020B   23109.67100747 -.00000024  00000+0  00000+0 0  9997
2 44113   0.0595   3.9243 0003662  45.6888 310.4177  5.00115302 73685
O3B FM17                
1 44114U 19020C   23109.55139488 -.00000024  00000+0  00000+0 0  9999
2 44114   0.0545  25.5383 0003017 358.6618 335.8131  5.00115811 73752
O3B FM18                
1 44115U 19020D   23109.09806864 -.00000024  00000+0  00000+0 0  9998
2 44115   0.0536   4.1448 0002834  21.9738 333.8944  5.00115996 73863
SES-17                  
1 49332U 21095A   23109.78205204 -.00000281  00000+0  00000+0 0  9991
2 49332   0.0158 178.5818 0000922 206.1616  37.3054  1.00269710  6262
SES-22                  
1 52933U 22071A   23109.69680448  .00000079  00000+0  00000+0 0  9998
2 52933   0.0127 213.3120 0001696 157.0991 312.9505  1.00271478  2962
SES-20                  
1 53960U 22123A   23109.48805389 -.00000110  00000+0  00000+0 0  9994
2 53960   0.0534 114.0433 0001251 318.2494 207.6278  1.00270685  1960
SES-21                  
1 53961U 22123B   23109.69758896  .00000060  00000+0  00000+0 0  9991
2 53961   0.0132 108.5274 0000992 274.8577 304.2863  1.00270275  1976
O3B MPOWER-A F1         
1 54755U 22174A   23109.75893123 -.00000025  00000+0  00000+0 0  9991
2 54755   0.0315   9.3404 0036650 190.8517 134.5217  4.98798070  7594
O3B MPOWER-A F2         
1 54756U 22174B   23109.84895729 -.00000025  00000+0  00000+0 0  9996
2 54756   0.0432   7.9908 0001201 110.9721 174.8465  5.00115139  7676
SES-18                  
1 55970U 23038A   23110.34304682  .00000104  00000+0  00000+0 0  9992
2 55970   0.0457 264.2468 0000348 221.1243  65.1728  1.00275922   542
SES-19                  
1 55971U 23038B   23110.34128949  .00000110  00000+0  00000+0 0  9990
2 55971   0.0482 274.9581 0000122 344.6931 288.5726  1.00271970   515
ISS (ZARYA)             
1 25544U 98067A   23110.43007450  .00021693  00000+0  38641-3 0  9995
2 25544  51.6397 254.7694 0006141 215.2286 181.5841 15.50031843392831
AEROCUBE 12A            
1 43556U 18046C   23110.01678993  .00322531  00000+0  17767-2 0  9997
2 43556  51.6209 105.6076 0010936  62.9831 297.2285 15.78143188266859
AEROCUBE 12B            
1 43557U 18046D   23109.59552600  .00104354  00000+0  12167-2 0  9995
2 43557  51.6286 123.7479 0009643  47.5132 312.6674 15.60778411266521
ISS DEB                 
1 47853U 98067RZ  23109.80979064  .00038371  00000+0  39262-3 0  9991
2 47853  51.6376 235.0651 0001319   4.4080 355.6927 15.64615140119662
CSS (TIANHE)            
1 48274U 21035A   23110.30308387 -.00000360  00000+0  00000+0 0  9993
2 48274  41.4705 148.5226 0000875 187.5833 270.5832 15.64978507112789
ISS (NAUKA)             
1 49044U 21066A   23109.73346817  .00019350  00000+0  34605-3 0  9998
2 49044  51.6390 258.2167 0006097 211.5631 255.5770 15.49997643392720
FREGAT DEB              
1 49271U 11037PF  23109.70775030  .00041067  00000+0  97931-1 0  9996
2 49271  51.6726 108.2982 1027655 310.7046  40.8812 12.03666206 83858
CSS (WENTIAN)           
1 53239U 22085A   23109.14686141 -.00002457  00000+0 -20789-4 0  9994
2 53239  41.4730 155.6035 0001122 185.0031 230.5793 15.64939008112606
CSS (MENGTIAN)          
1 54216U 22143A   23109.14686141 -.00002457  00000+0 -20789-4 0  9995
2 54216  41.4730 155.6035 0001122 185.0031 230.5793 15.64939008112602
CYGNUS NG-18            
1 54232U 22149A   23109.73346817  .00019350  00000+0  34605-3 0  9996
2 54232  51.6390 258.2167 0006097 211.5631 255.5770 15.49997643392725
TIANZHOU-5              
1 54237U 22152A   23109.14686141 -.00002457  00000+0 -20789-4 0  9998
2 54237  41.4730 155.6035 0001122 185.0031 230.5793 15.64939008112605
SHENZHOU-15             
1 54379U 22162A   23109.14686141 -.00002457  00000+0 -20789-4 0  9996
2 54379  41.4730 155.6035 0001122 185.0031 230.5793 15.64939008112602
1998-067UL              
1 54534U 98067UL  23109.66292843  .00395071  00000+0  15191-2 0  9999
2 54534  51.6295 245.9229 0011818 299.9440  60.0390 15.85668718 21679
1998-067UM              
1 54535U 98067UM  23109.59642293  .01408490  12406-2  18360-2 0  9998
2 54535  51.6279 242.9486 0013194 307.6049 160.2715 16.06434472 21705
1998-067UN              
1 54536U 98067UN  23109.94009524  .00269520  00000+0  14307-2 0  9991
2 54536  51.6405 246.1254 0009181 290.8224 167.7136 15.79133442 21650
1998-067UP              
1 54537U 98067UP  23109.91905297  .00436378  00000+0  16113-2 0  9995
2 54537  51.6328 244.4293 0010210 294.7207 161.0106 15.86429002 21717
MARIO                   
1 55123U 98067UQ  23109.61829616  .00567916  13505-3  18332-2 0  9990
2 55123  51.6281 247.1378 0013339 304.9833  54.9920 15.90137791 17462
LORIS                   
1 55125U 98067US  23110.10179171  .00287937  00000+0  16774-2 0  9994
2 55125  51.6332 247.3950 0010233 297.1081  62.8875 15.76992793 17515
ORCASAT                 
1 55126U 98067UT  23109.66732884  .00163726  00000+0  12999-2 0  9994
2 55126  51.6366 251.2687 0008553 287.5784  72.4279 15.70179141 17422
TJREVERB                
1 55128U 98067UV  23110.08412586  .00259043  00000+0  16202-2 0  9997
2 55128  51.6326 248.0299 0010863 290.6824  69.3011 15.75450994 17499
SPORT                   
1 55129U 98067UW  23109.64935369  .00078530  00000+0  89302-3 0  9999
2 55129  51.6374 254.1514 0005751 268.1666  91.8669 15.61587239 17379
SS-1                    
1 55181U 98067UY  23108.41972537  .00467223  00000+0  19015-2 0  9993
2 55181  51.6293 254.8914 0011826 285.1107  74.8588 15.84312021 15961
HSKSAT                  
1 55182U 98067UZ  23109.64080668  .00171576  00000+0  13844-2 0  9992
2 55182  51.6340 251.8274 0007609 265.6410  94.3718 15.69773156 16129
OPTIMAL-1               
1 55183U 98067VA  23109.69435924  .00093553  00000+0  93806-3 0  9992
2 55183  51.6390 252.9611 0008580 280.8157  79.1872 15.64703613 16115
ISS DEB (SPX-26 IPA FSE)
1 55448U 98067VB  23109.77768940  .00055247  00000+0  75141-3 0  9992
2 55448  51.6381 255.7548 0007310 246.6061 113.4162 15.57002027 12149
PROGRESS-MS 22          
1 55560U 23018A   23109.73346817  .00019350  00000+0  34605-3 0  9997
2 55560  51.6390 258.2167 0006097 211.5631 255.5770 15.49997643392720
SOYUZ-MS 23             
1 55688U 23024A   23109.73346817  .00019350  00000+0  34605-3 0  9995
2 55688  51.6390 258.2167 0006097 211.5631 255.5770 15.49997643392721
CREW DRAGON 6           
1 55740U 23027A   23109.73346817  .00019350  00000+0  34605-3 0  9997
2 55740  51.6390 258.2167 0006097 211.5631 255.5770 15.49997643392720
CREW DRAGON 5 DEB       
1 55840U 22124B   23109.87968066  .01014582  54729-3  14522-2 0  9995
2 55840  51.3082 245.6293 0034224 231.9685 127.8326 16.03679335  6203
TDRS 3                  
1 19548U 88091B   23110.15483955 -.00000310  00000+0  00000+0 0  9993
2 19548  13.4887 348.9794 0037804 339.0878 246.7901  1.00270504113793
HST                     
1 20580U 90037B   23110.23447678  .00006462  00000+0  34831-3 0  9991
2 20580  28.4691 293.4820 0002883 106.5893  57.8411 15.12789599612942
TDRS 5                  
1 21639U 91054B   23109.67531326  .00000074  00000+0  00000+0 0  9997
2 21639  14.2124   2.2849 0027745 357.9700 282.7256  1.00276756116136
TDRS 6                  
1 22314U 93003B   23109.41558257 -.00000305  00000+0  00000+0 0  9996
2 22314  14.1492   5.5561 0009623 123.4516 181.9620  1.00276408110826
